<?xml version="1.0" encoding="UTF-8"?>
<gpx version="1.0" creator="RideConnectX turn test" xmlns="http://www.topografix.com/GPX/1/0">
<metadata><name>RCX Hyderabad loop</name></metadata>
<wpt lat="17.499992" lon="78.600040"/>
<wpt lat="17.499829" lon="78.600005"/>
<wpt lat="17.499854" lon="78.599591"/>
<wpt lat="17.499640" lon="78.599543"/>
<wpt lat="17.499198" lon="78.599465"/>
<wpt lat="17.498859" lon="78.599383"/>
<wpt lat="17.498633" lon="78.599331"/>
<wpt lat="17.498458" lon="78.599255"/>
<wpt lat="17.498066" lon="78.599039"/>
<wpt lat="17.497596" lon="78.598722"/>
<wpt lat="17.496869" lon="78.598149"/>
<wpt lat="17.496617" lon="78.597977"/>
<wpt lat="17.496293" lon="78.597710"/>
<wpt lat="17.495849" lon="78.597345"/>
<wpt lat="17.494831" lon="78.596542"/>
<wpt lat="17.494933" lon="78.596479"/>
<wpt lat="17.495189" lon="78.596335"/>
<wpt lat="17.495041" lon="78.595222"/>
<wpt lat="17.495013" lon="78.594998"/>
<wpt lat="17.495041" lon="78.595222"/>
<wpt lat="17.495189" lon="78.596335"/>
<wpt lat="17.494933" lon="78.596479"/>
<wpt lat="17.494831" lon="78.596542"/>
<wpt lat="17.494639" lon="78.596638"/>
<wpt lat="17.494394" lon="78.596771"/>
<wpt lat="17.493653" lon="78.597164"/>
<wpt lat="17.493562" lon="78.597212"/>
<wpt lat="17.493245" lon="78.597382"/>
<wpt lat="17.493097" lon="78.597466"/>
<wpt lat="17.493714" lon="78.598012"/>
<wpt lat="17.494209" lon="78.598450"/>
<wpt lat="17.495207" lon="78.599397"/>
<wpt lat="17.495289" lon="78.599472"/>
<wpt lat="17.495520" lon="78.599633"/>
<wpt lat="17.495730" lon="78.599708"/>
<wpt lat="17.496178" lon="78.599864"/>
<wpt lat="17.496472" lon="78.599970"/>
<wpt lat="17.496765" lon="78.600076"/>
<wpt lat="17.497098" lon="78.600264"/>
<wpt lat="17.496976" lon="78.600534"/>
<wpt lat="17.496962" lon="78.600862"/>
<wpt lat="17.496887" lon="78.601242"/>
<wpt lat="17.496788" lon="78.601609"/>
<wpt lat="17.496695" lon="78.601885"/>
<wpt lat="17.496587" lon="78.602372"/>
<wpt lat="17.496543" lon="78.602563"/>
<wpt lat="17.496507" lon="78.602714"/>
<wpt lat="17.496438" lon="78.602966"/>
<wpt lat="17.496388" lon="78.603158"/>
<wpt lat="17.496352" lon="78.603294"/>
<wpt lat="17.496276" lon="78.603572"/>
<wpt lat="17.496638" lon="78.603664"/>
<wpt lat="17.496638" lon="78.603782"/>
<wpt lat="17.496638" lon="78.603863"/>
<wpt lat="17.496709" lon="78.603934"/>
<wpt lat="17.497056" lon="78.604342"/>
<wpt lat="17.497224" lon="78.604529"/>
<wpt lat="17.497499" lon="78.604669"/>
<wpt lat="17.497822" lon="78.604831"/>
<wpt lat="17.498156" lon="78.605013"/>
<wpt lat="17.498515" lon="78.605218"/>
<wpt lat="17.498820" lon="78.605373"/>
<wpt lat="17.498515" lon="78.605218"/>
<wpt lat="17.498156" lon="78.605013"/>
<wpt lat="17.497822" lon="78.604831"/>
<wpt lat="17.497499" lon="78.604669"/>
<wpt lat="17.497586" lon="78.604371"/>
<wpt lat="17.497646" lon="78.604129"/>
<wpt lat="17.497673" lon="78.604043"/>
<wpt lat="17.497758" lon="78.603680"/>
<wpt lat="17.497906" lon="78.603690"/>
<wpt lat="17.497916" lon="78.603300"/>
<wpt lat="17.497923" lon="78.603036"/>
<wpt lat="17.497943" lon="78.602772"/>
<wpt lat="17.497974" lon="78.602533"/>
<wpt lat="17.497984" lon="78.602457"/>
<wpt lat="17.498015" lon="78.602214"/>
<wpt lat="17.498049" lon="78.601952"/>
<wpt lat="17.498083" lon="78.601688"/>
<wpt lat="17.498119" lon="78.601441"/>
<wpt lat="17.498136" lon="78.601279"/>
<wpt lat="17.497817" lon="78.601222"/>
<wpt lat="17.497856" lon="78.600924"/>
<wpt lat="17.497969" lon="78.600675"/>
<wpt lat="17.497992" lon="78.600623"/>
<wpt lat="17.498180" lon="78.600401"/>
<wpt lat="17.498235" lon="78.600336"/>
<wpt lat="17.498407" lon="78.600133"/>
<wpt lat="17.498451" lon="78.600107"/>
<wpt lat="17.498527" lon="78.600099"/>
<wpt lat="17.499133" lon="78.600206"/>
<wpt lat="17.499793" lon="78.600369"/>
<wpt lat="17.500262" lon="78.600478"/>
</gpx>
